[{"OBJECT_NAME":"OBJECT V","OBJECT_ID":"2023-085V","EPOCH":"2026-03-09T21:44:00.165408","MEAN_MOTION":15.30745852,"ECCENTRICITY":0.00069081,"INCLINATION":97.4843,"RA_OF_ASC_NODE":179.3833,"ARG_OF_PERICENTER":71.0503,"MEAN_ANOMALY":289.1485,"EPHEMERIS_TYPE":0,"CLASSIFICATION_TYPE":"U","NORAD_CAT_ID":57023,"ELEMENT_SET_NO":999,"REV_AT_EPOCH":15149,"BSTAR":0.00067780507,"MEAN_MOTION_DOT":0.00020109,"MEAN_MOTION_DDOT":0},{"OBJECT_NAME":"STARLINK-30927","OBJECT_ID":"2023-178J","EPOCH":"2026-03-09T01:49:18.808032","MEAN_MOTION":15.30189297,"ECCENTRICITY":0.00011698,"INCLINATION":53.1617,"RA_OF_ASC_NODE":4.1926,"ARG_OF_PERICENTER":85.5281,"MEAN_ANOMALY":274.5853,"EPHEMERIS_TYPE":0,"CLASSIFICATION_TYPE":"U","NORAD_CAT_ID":58382,"ELEMENT_SET_NO":999,"REV_AT_EPOCH":12977,"BSTAR":-1.3388147e-5,"MEAN_MOTION_DOT":-7.55e-6,"MEAN_MOTION_DDOT":0}]
